#dP2022 10 26  0  0  0.00000000      96 __u+U ITR00 EXT  IAC
## 2233 259200.00000000   900.00000000 59878 0.0000000000000
+  118   C06C07C08C09C10C11C12C13C14C16C19C20C21C22C23C24C25
+        C26C27C28C29C30C32C33C34C35C36C37C38C39C40C41C42C43
+        C44C45C46E01E02E03E04E05E07E08E09E10E11E12E13E14E15
+        E18E19E21E24E25E26E27E30E31E33E34E36G01G02G03G04G05
+        G06G07G08G09G10G11G12G13G14G15G16G17G18G19G20G21G22
+        G23G24G25G26G27G28G29G30G31G32J02J03J04R01R02R03R04
+        R05R07R08R09R11R12R13R14R15R17R18R19R20R21R22R24  0
++         7  8  8  9  8  9  9  9  9  8  7  9  8  7  8  9  7
++         8  9  8  9  8  7  8  8  8  7  8  9  7 11  8 10  7
++         8 10  9  7 10  8  7  6  8  6  8 10  7  8  7 10  7
++         7  8  8  8  8 10  7  8  7  9  8  7  8  7  9  7  7
++         7  7  7  7  7  9  8  7  7  8  7  7 11  7  8  7  7
++         8  6  7  8  8  7  7  8  7  7  9 10  9  9  8  9  8
++         8  8  8  8  9 10  9  9  9  8  9  9  9  8  8  8  0
%c M  cc GPS ccc cccc cccc cccc cccc ccccc ccccc ccccc ccccc
%c cc cc ccc ccc cccc cccc cccc cccc ccccc ccccc ccccc ccccc
%f  0.0000000  0.000000000  0.00000000000  0.000000000000000
%f  0.0000000  0.000000000  0.00000000000  0.000000000000000
%i    0    0    0    0      0      0      0      0         0
%i    0    0    0    0      0      0      0      0         0
/* IAC                                ULTRA-RAPID PREDICTION
/* S/V CLOCKS ARE ALIGNED TO GNSS TIME                      
/* G:C1WC2W R:C1PC2P E:C1XC5X C:C2IC6I J:C1CC2S             
/* PCV:IGS14_2218 OL/AL:FES2004  NONE     YN ORB:CoN CLK:CoN
*  2022 10 26  3  0  0.00000000
PC06  -8855.704612  40817.120496   6648.061672    884.715903
PC07  -5911.220355  27111.274614 -31677.611851    304.453058
PC08 -19922.165935  26373.092927  26059.400766    501.339229
PC09  -3838.908697  42137.049254  -3055.526569   -824.455673
PC10   2365.776169  29448.774257 -29637.128329     78.263478
PC11  -5237.935492 -26256.619387  -7863.931619   -329.870766
PC12   5961.976892 -25549.646024   9583.037034   -467.477607
PC13  -9970.566907  26893.835959  30931.859431    116.611764
PC14 -14194.141491 -18992.102171 -14746.398877    599.637686
PC16 -11642.117866  39048.516034  11557.177402    125.030312
PC19  21573.030281  16457.237637   6508.018277   -923.478227
PC20   6261.143346  18650.300847  19785.888044    855.078845
PC21  13953.593475  -9748.094275 -22104.594809   -682.791561
PC22  25124.378563   4653.747631 -11206.611683   -829.871979
PC23 -24452.411543   4413.497404  12700.202372   -736.634207
PC24   7032.490116 -19859.044620  18307.425526   -790.528248
PC25 -13747.148716  -9971.198038  22133.274884     15.128034
PC26  20806.364096 -17928.816066   5043.229733    -26.752314
PC27 -10945.188559  19792.063010 -16368.815222     41.558493
PC28 -15878.596584    982.401661 -22921.106040     28.556117
PC29  12241.868346  19384.333645  15904.431460     31.802774
PC30    904.318178  27879.990362  -1069.197688      0.697794
PC32 -13993.848395   9793.629294  22074.311661   -743.952921
PC33 -21621.018716 -16376.355318  -6590.432763   -926.683141
PC34  -1641.296155 -27848.911446    -77.262893     24.951138
PC35  16002.768204    241.241288  22854.784394     58.807831
PC36  12983.527465  10703.266354 -22239.425478   -867.734354
PC37 -21893.144405  16852.265426  -3807.015860   -628.142826
PC38 -25479.050747  27563.942740  19038.721973     33.650227
PC39 -12052.785232  37130.013494  16199.242453     -0.721646
PC40 -10109.159776  20865.563011 -35203.894074     -6.783451
PC41 -25290.803171  -4951.087480  10744.087399   -210.058121
PC42  -5055.531007 -18446.536457 -20290.423946   -542.847838
PC43 -11934.170191 -20036.074734 -15319.752861     21.551902
PC44  10414.202393 -19993.293845  16422.650132     93.332094
PC45  24532.753949  -4792.257878 -12433.446864    -14.392354
PC46  -5193.653110  19398.883978 -19356.543563     -8.741089
PE01   9176.322212  15736.881806 -23325.795690   -553.575668
PE02  -9351.491761 -15703.695818  23282.996855    333.008691
PE03 -12861.160439 -26372.811589  -3951.861618   -613.497069
PE04  20984.951986  15649.525346 -13821.207871  -1144.642097
PE05   3013.175529 -21810.095852 -19788.907602   -130.930226
PE07 -16873.357130   4652.428561  23868.089183   -716.251167
PE08 -20957.369600 -15623.773699  13887.502297   -621.579804
PE09  16831.111723  -4444.864886 -23944.248152   -706.326677
PE10  18823.693038  -4662.945283  22361.936658   -486.272428
PE11  19862.986925 -15254.562079  15767.794671   1620.450813
PE12  15044.001093   5945.459039  24788.217323   -242.245736
PE13 -19842.505836  14528.580497 -16465.023676    430.673389
PE14  11527.215681  21287.973219   2627.341038     38.285601
PE15 -14850.545406  -6150.170863 -24848.963691    711.655089
PE18 -20476.224709 -21019.930146 -13148.197298   -818.300286
PE19  10990.769160  26720.500071   6445.049650  -4167.515022
PE21 -11827.795697  15483.373451 -22275.898258   -490.886095
PE24  28077.568064  -5675.201920   7506.533243   -911.703360
PE25  12166.567040 -15413.504000  22162.587746   -591.107062
PE26 -12664.426774  26642.747051   2357.841785  -1770.236688
PE27 -27639.145912   6381.810965  -8425.301968   -424.179865
PE30 -26600.348873  -6990.864438  10916.858054   -946.283470
PE31  27039.627558   6367.847917 -10221.514700   -506.612785
PE33   1136.734022  23060.815521  18525.709625   -455.047992
PE34  -1308.046724 -22971.839363 -18636.129294    -11.335179
PE36  13154.740761 -26477.050316  -1481.181546   -451.337980
PG01  13794.146118 -22424.887588  -1838.983789    261.678617
PG02 -12040.183194  23783.782354   1329.881586   -640.774330
PG03  13713.139522 -12249.794734 -19251.602760   -368.080811
PG04   4491.413080 -19444.137291 -17476.062073    -97.482952
PG05 -23602.371758   6708.443053  10140.602505   -101.813241
PG06 -13433.602292  -6024.777061 -22045.220728    501.520388
PG07   1787.781711 -21939.144037  14922.223612    294.852663
PG08  11595.733629 -10207.687083  21528.374216    -90.658992
PG09  -5779.103189 -24375.412787  -8842.995229   -278.032962
PG10  18622.675720  11499.712124  15419.489406     -9.094721
PG11 -19107.639442   5290.920325 -17650.973317    -30.470678
PG12 -14865.229942  11335.386195 -19094.796693   -296.616197
PG13 -15221.265373   1278.717131  21571.934474    412.896991
PG14 -16367.441829 -13214.882512  16289.861442    -91.025644
PG15 -10581.851365  11932.103102  20764.832505    -17.816202
PG16  26232.993214    252.752732   5230.641178   -526.622904
PG17 -12741.430318 -22808.834373  -4127.025760    672.194242
PG18  -1354.763957  21141.178208  15930.511614      1.496203
PG19 -16299.775175 -15549.813714 -14508.312391    228.755460
PG20 -26238.035325    421.815523  -3184.369691    475.364327
PG21  16849.118589 -18376.508091   8571.055668    157.351195
PG22  16902.373174  12975.101233 -15546.802386    352.537383
PG23   7832.517662  14504.908907  20845.727046     -1.131414
PG24 -14353.145892  21835.434940   2907.597785     85.372111
PG25  -2261.270430  15351.711162 -21836.658333    386.168595
PG26  25808.907079   4136.064024  -5703.724294    233.751104
PG27  16861.292712   2653.689329  20235.919429    191.373520
PG28 -22606.821089 -10184.361910   9663.087118    323.903891
PG29   2654.823739  24392.667457 -10105.036114   -562.473783
PG30  -8102.498428 -14907.850787  20470.887709   -537.119147
PG31  15039.499046   5003.804376 -21512.999406   -198.046424
PG32  15799.873353  20305.836613  -6847.868194   -275.173549
PJ02 -32258.310435  17023.654675 -16510.266908     -8.145654
PJ03 -21948.147808  31154.885939 -13402.203448     -3.484689
PJ04 -27610.408528  26478.311281  23819.034673    112.164294
PR01 -16269.931649   -503.219718  19634.850759     16.827991
PR02   -458.008586  12958.156358  22015.015068    -23.106896
PR03  14443.186668  18081.575959  10837.417730     66.142930
PR04  20944.727299  13209.867242  -6141.007543    162.544666
PR05  16084.441656   1158.545501 -19771.022024    101.851575
PR07 -14918.336344 -18023.745223 -10064.610206     43.182880
PR08 -21028.844692 -12942.513077   6377.390876    -67.797024
PR09  12985.536478 -14358.643685  16585.811862     84.061230
PR11 -19071.741177   -825.805159  16938.397436     23.521189
PR12 -23612.523847   9618.081133   -316.115278     22.336507
PR13 -14559.073952  14068.157755 -15527.232645    -28.180271
PR14   4518.172015  10160.511973 -22942.447869     24.206084
PR15  19732.041076    473.300453 -16135.818600     93.008682
PR17   2003.738073  22408.725557  11986.615328    572.387521
PR18   8677.762462   8878.915608  22308.198538     48.878104
PR19  11237.604907  -7774.236601  21545.400053   -208.625615
PR20   7423.295458 -23579.665958   6235.984617    -80.897460
PR21  -2575.083203 -21598.279228 -13351.597470   -344.535763
PR22  -8963.105138  -8476.572096 -22297.011037     14.902778
PR24  -6571.201277  24014.021988  -5474.913587    122.563595
EOF
